{"type": "FeatureCollection", "features": [ {"type": "Feature", "properties": {"norad_id": 17070, "name": "POLAR BEAR", "group": "nnss", "lat": -18.15844199881313, "lon": 3.999063908441683, "alt_km": 976.2507975763283, "timestamp": "2025-12-10T05:46:14.090804+00:00", "meta": {"OBJECT_NAME": "POLAR BEAR", "OBJECT_ID": "1986-088A", "EPOCH": "2025-12-09T11:40:55.884288", "MEAN_MOTION": 13.75249895, "ECCENTRICITY": 0.00407734, "INCLINATION": 89.6176, "RA_OF_ASC_NODE": 183.9039, "ARG_OF_PERICENTER": 128.6786, "MEAN_ANOMALY": 299.7884, "EPHEMERIS_TYPE": 0, "CLASSIFICATION_TYPE": "U", "NORAD_CAT_ID": 17070, "ELEMENT_SET_NO": 999, "REV_AT_EPOCH": 95934, "BSTAR": 0.00016163387, "MEAN_MOTION_DOT": 1.67e-06, "MEAN_MOTION_DDOT": 0}, "tle": {"line1": "1 17070U 86088A   25343.48675792  .00000167  00000+0  16163-3 0  9993", "line2": "2 17070  89.6176 183.9039 0040773 128.6786 299.7884 13.75249895959346"}}, "geometry": {"type": "Point", "coordinates": [3.999063908441683, -18.15844199881313]}}, {"type": "Feature", "properties": {"norad_id": 18361, "name": "OSCAR 27", "group": "nnss", "lat": 8.372043325673316, "lon": 79.12369317825922, "alt_km": 1148.9781576864425, "timestamp": "2025-12-10T05:46:14.090815+00:00", "meta": {"OBJECT_NAME": "OSCAR 27", "OBJECT_ID": "1987-080A", "EPOCH": "2025-12-09T13:39:29.711232", "MEAN_MOTION": 13.4490578, "ECCENTRICITY": 0.0102683, "INCLINATION": 90.3743, "RA_OF_ASC_NODE": 79.1537, "ARG_OF_PERICENTER": 232.9828, "MEAN_ANOMALY": 126.1891, "EPHEMERIS_TYPE": 0, "CLASSIFICATION_TYPE": "U", "NORAD_CAT_ID": 18361, "ELEMENT_SET_NO": 999, "REV_AT_EPOCH": 87514, "BSTAR": 0.00029988, "MEAN_MOTION_DOT": 1.89e-06, "MEAN_MOTION_DDOT": 0}, "tle": {"line1": "1 18361U 87080A   25343.56909388  .00000189  00000+0  29988-3 0  9993", "line2": "2 18361  90.3743  79.1537 0102683 232.9828 126.1891 13.44905780875147"}}, "geometry": {"type": "Point", "coordinates": [79.12369317825922, 8.372043325673316]}}, {"type": "Feature", "properties": {"norad_id": 18362, "name": "OSCAR 29", "group": "nnss", "lat": 24.80504117502845, "lon": 79.46390701744151, "alt_km": 1141.887666183512, "timestamp": "2025-12-10T05:46:14.090826+00:00", "meta": {"OBJECT_NAME": "OSCAR 29", "OBJECT_ID": "1987-080B", "EPOCH": "2025-12-09T13:37:43.650048", "MEAN_MOTION": 13.4444762, "ECCENTRICITY": 0.0103785, "INCLINATION": 90.3754, "RA_OF_ASC_NODE": 79.6123, "ARG_OF_PERICENTER": 256.3819, "MEAN_ANOMALY": 114.2703, "EPHEMERIS_TYPE": 0, "CLASSIFICATION_TYPE": "U", "NORAD_CAT_ID": 18362, "ELEMENT_SET_NO": 999, "REV_AT_EPOCH": 87467, "BSTAR": 0.00027686, "MEAN_MOTION_DOT": 1.74e-06, "MEAN_MOTION_DDOT": 0}, "tle": {"line1": "1 18362U 87080B   25343.56786632  .00000174  00000+0  27686-3 0  9996", "line2": "2 18362  90.3754  79.6123 0103785 256.3819 114.2703 13.44447620874671"}}, "geometry": {"type": "Point", "coordinates": [79.46390701744151, 24.80504117502845]}}, {"type": "Feature", "properties": {"norad_id": 19070, "name": "OSCAR 23", "group": "nnss", "lat": -49.19819695530356, "lon": 16.68796199090242, "alt_km": 1239.9137886487188, "timestamp": "2025-12-10T05:46:14.090836+00:00", "meta": {"OBJECT_NAME": "OSCAR 23", "OBJECT_ID": "1988-033A", "EPOCH": "2025-12-09T12:36:56.310336", "MEAN_MOTION": 13.27786505, "ECCENTRICITY": 0.0189262, "INCLINATION": 90.3215, "RA_OF_ASC_NODE": 16.293, "ARG_OF_PERICENTER": 188.8642, "MEAN_ANOMALY": 305.478, "EPHEMERIS_TYPE": 0, "CLASSIFICATION_TYPE": "U", "NORAD_CAT_ID": 19070, "ELEMENT_SET_NO": 999, "REV_AT_EPOCH": 82210, "BSTAR": 0.00020442, "MEAN_MOTION_DOT": 1.1e-06, "MEAN_MOTION_DDOT": 0}, "tle": {"line1": "1 19070U 88033A   25343.52565174  .00000110  00000+0  20442-3 0  9997", "line2": "2 19070  90.3215  16.2930 0189262 188.8642 305.4780 13.27786505822109"}}, "geometry": {"type": "Point", "coordinates": [16.68796199090242, -49.19819695530356]}}, {"type": "Feature", "properties": {"norad_id": 19071, "name": "OSCAR 32", "group": "nnss", "lat": 55.90276070012844, "lon": 15.971239399062034, "alt_km": 1213.1330250745332, "timestamp": "2025-12-10T05:46:14.090847+00:00", "meta": {"OBJECT_NAME": "OSCAR 32", "OBJECT_ID": "1988-033B", "EPOCH": "2025-12-09T12:03:27.412704", "MEAN_MOTION": 13.2795343, "ECCENTRICITY": 0.0188095, "INCLINATION": 90.322, "RA_OF_ASC_NODE": 16.4241, "ARG_OF_PERICENTER": 175.7825, "MEAN_ANOMALY": 315.8544, "EPHEMERIS_TYPE": 0, "CLASSIFICATION_TYPE": "U", "NORAD_CAT_ID": 19071, "ELEMENT_SET_NO": 999, "REV_AT_EPOCH": 82222, "BSTAR": 0.00020819121, "MEAN_MOTION_DOT": 1.12e-06, "MEAN_MOTION_DDOT": 0}, "tle": {"line1": "1 19071U 88033B   25343.50240061  .00000112  00000+0  20819-3 0  9991", "line2": "2 19071  90.3220  16.4241 0188095 175.7825 315.8544 13.27953430822223"}}, "geometry": {"type": "Point", "coordinates": [15.971239399062034, 55.90276070012844]}}, {"type": "Feature", "properties": {"norad_id": 19223, "name": "NOVA 2", "group": "nnss", "lat": -60.21570417106008, "lon": 78.25293195236486, "alt_km": 1178.1661509356236, "timestamp": "2025-12-10T05:46:14.090857+00:00", "meta": {"OBJECT_NAME": "NOVA 2", "OBJECT_ID": "1988-052A", "EPOCH": "2025-12-09T19:47:11.366304", "MEAN_MOTION": 13.22935544, "ECCENTRICITY": 0.0030835, "INCLINATION": 89.9871, "RA_OF_ASC_NODE": 78.276, "ARG_OF_PERICENTER": 24.812, "MEAN_ANOMALY": 95.2855, "EPHEMERIS_TYPE": 0, "CLASSIFICATION_TYPE": "U", "NORAD_CAT_ID": 19223, "ELEMENT_SET_NO": 999, "REV_AT_EPOCH": 80909, "BSTAR": 0.00021555, "MEAN_MOTION_DOT": 9.9e-07, "MEAN_MOTION_DDOT": 0}, "tle": {"line1": "1 19223U 88052A   25343.82443711  .00000099  00000+0  21555-3 0  9995", "line2": "2 19223  89.9871  78.2760 0030835  24.8120  95.2855 13.22935544809095"}}, "geometry": {"type": "Point", "coordinates": [78.25293195236486, -60.21570417106008]}}, {"type": "Feature", "properties": {"norad_id": 19419, "name": "OSCAR 25", "group": "nnss", "lat": -18.73247794121091, "lon": -159.7757293992677, "alt_km": 1063.154988856818, "timestamp": "2025-12-10T05:46:14.090868+00:00", "meta": {"OBJECT_NAME": "OSCAR 25", "OBJECT_ID": "1988-074A", "EPOCH": "2025-12-09T20:42:06.021216", "MEAN_MOTION": 13.42622614, "ECCENTRICITY": 0.009434, "INCLINATION": 90.0349, "RA_OF_ASC_NODE": 20.2348, "ARG_OF_PERICENTER": 254.1968, "MEAN_ANOMALY": 279.9601, "EPHEMERIS_TYPE": 0, "CLASSIFICATION_TYPE": "U", "NORAD_CAT_ID": 19419, "ELEMENT_SET_NO": 999, "REV_AT_EPOCH": 82601, "BSTAR": 0.00023459, "MEAN_MOTION_DOT": 1.45e-06, "MEAN_MOTION_DDOT": 0}, "tle": {"line1": "1 19419U 88074A   25343.86256969  .00000145  00000+0  23459-3 0  9994", "line2": "2 19419  90.0349  20.2348 0094340 254.1968 279.9601 13.42622614826017"}}, "geometry": {"type": "Point", "coordinates": [-159.7757293992677, -18.73247794121091]}}, {"type": "Feature", "properties": {"norad_id": 19420, "name": "OSCAR 31", "group": "nnss", "lat": 83.30641212662756, "lon": 20.27278833485949, "alt_km": 1158.7796433458516, "timestamp": "2025-12-10T05:46:14.090878+00:00", "meta": {"OBJECT_NAME": "OSCAR 31", "OBJECT_ID": "1988-074B", "EPOCH": "2025-12-09T12:06:07.808256", "MEAN_MOTION": 13.42583896, "ECCENTRICITY": 0.00926038, "INCLINATION": 90.0367, "RA_OF_ASC_NODE": 20.583, "ARG_OF_PERICENTER": 249.3335, "MEAN_ANOMALY": 238.1831, "EPHEMERIS_TYPE": 0, "CLASSIFICATION_TYPE": "U", "NORAD_CAT_ID": 19420, "ELEMENT_SET_NO": 999, "REV_AT_EPOCH": 82607, "BSTAR": 0.00020450542, "MEAN_MOTION_DOT": 1.27e-06, "MEAN_MOTION_DDOT": 0}, "tle": {"line1": "1 19420U 88074B   25343.50425704  .00000127  00000+0  20451-3 0  9991", "line2": "2 19420  90.0367  20.5830 0092603 249.3335 238.1831 13.42583896826078"}}, "geometry": {"type": "Point", "coordinates": [20.27278833485949, 83.30641212662756]}}]}